[{"OBJECT_NAME":"RAPTOR4","OBJECT_ID":"2024-028B","EPOCH":"2026-03-09T13:25:37.970400","MEAN_MOTION":13.70164328,"ECCENTRICITY":0.0014524,"INCLINATION":39.9901,"RA_OF_ASC_NODE":141.9922,"ARG_OF_PERICENTER":23.3417,"MEAN_ANOMALY":336.7986,"EPHEMERIS_TYPE":0,"CLASSIFICATION_TYPE":"U","NORAD_CAT_ID":58956,"ELEMENT_SET_NO":999,"REV_AT_EPOCH":10338,"BSTAR":6.0683e-5,"MEAN_MOTION_DOT":-2.4e-7,"MEAN_MOTION_DDOT":0},{"OBJECT_NAME":"SL-8 R\/B","OBJECT_ID":"1984-100B","EPOCH":"2026-03-09T20:52:50.839968","MEAN_MOTION":13.75413574,"ECCENTRICITY":0.00227367,"INCLINATION":82.9413,"RA_OF_ASC_NODE":205.5715,"ARG_OF_PERICENTER":167.3243,"MEAN_ANOMALY":192.849,"EPHEMERIS_TYPE":0,"CLASSIFICATION_TYPE":"U","NORAD_CAT_ID":15293,"ELEMENT_SET_NO":999,"REV_AT_EPOCH":2546,"BSTAR":3.0314267e-5,"MEAN_MOTION_DOT":4.4e-7,"MEAN_MOTION_DDOT":0}]
